DELTA 2 R/B(1)          
1 20453U 90008B   25362.12155574  .00060321  00000+0  92520-3 0  9991
2 20453  35.6064 281.1107 0108868 317.7503  41.4882 15.46558121915018
COSMOS 2058             
1 20465U 90010A   25362.32506656  .00006307  00000+0  37954-3 0  9994
2 20465  82.4706 117.7014 0009750 215.2223 144.8363 15.10628938931460
SL-14 R/B               
1 20466U 90010B   25362.19170391  .00000654  00000+0  76403-4 0  9995
2 20466  82.5025 334.5340 0019973 170.9075 189.2506 14.83486642917882
SL-14 R/B               
1 20511U 90018B   25362.27573550  .00000673  00000+0  81686-4 0  9997
2 20511  82.5220 289.8447 0015665 332.1414  27.8960 14.82063661912004
HST                     
1 20580U 90037B   25361.81274168  .00007679  00000+0  26317-3 0  9998
2 20580  28.4655 169.8779 0002567  48.3389 311.7425 15.28239180762309
SL-16 R/B               
1 20625U 90046B   25362.22756434  .00000009  00000+0  29077-4 0  9992
2 20625  70.9992  87.9966 0012409  46.8350 313.3807 14.14997520838286
COSMOS 2084             
1 20663U 90055A   25362.04864816  .00003265  00000+0  24040-3 0  9999
2 20663  62.7886 219.8271 0029271 176.7470 183.3826 15.05109929925535
SL-6 R/B(2)             
1 20666U 90055D   25361.73585602  .00003129  00000+0  24449-3 0  9992
2 20666  62.7829 138.4586 0014517 318.9634  41.0371 15.03147882927376
SL-8 R/B                
1 20775U 90078B   25362.28347331  .00017819  00000+0  54913-3 0  9994
2 20775  82.9055 315.3917 0369798 253.5488 102.4796 14.86484273798682
SL-8 R/B                
1 21088U 91006B   25362.16056003  .00000083  00000+0  68392-4 0  9996
2 21088  82.9411 223.2424 0021385 234.0224 240.3995 13.77492817754222
OKEAN-3                 
1 21397U 91039A   25362.18223143  .00003478  00000+0  24796-3 0  9998
2 21397  82.5162  46.0986 0013666 207.1420 152.9093 15.04214193854285
COSMOS 2151             
1 21422U 91042A   25362.23593364  .00003424  00000+0  27483-3 0  9999
2 21422  82.4967 152.5693 0011445 304.6178  55.3966 14.99750464852484
