CCSDS_OMM_VERS = 2.0
CREATION_DATE  = 
ORIGINATOR     = 

OBJECT_NAME    = DELTA 2 R/B(1)
OBJECT_ID      = 1990-008B
CENTER_NAME    = EARTH
REF_FRAME      = TEME
TIME_SYSTEM    = UTC
MEAN_ELEMENT_THEORY = SGP/SGP4

EPOCH          = 2025-12-28T02:55:02.415936
MEAN_MOTION    = 15.46558121
ECCENTRICITY   = .01088689
INCLINATION    = 35.6064
RA_OF_ASC_NODE = 281.1107
ARG_OF_PERICENTER = 317.7503
MEAN_ANOMALY   = 41.4882

EPHEMERIS_TYPE = 0
CLASSIFICATION_TYPE = U
NORAD_CAT_ID   = 20453
ELEMENT_SET_NO = 999
REV_AT_EPOCH   = 91501
BSTAR          = .92519841E-3
MEAN_MOTION_DOT = .60321E-3
MEAN_MOTION_DDOT = 0

CCSDS_OMM_VERS = 2.0
CREATION_DATE  = 
ORIGINATOR     = 

OBJECT_NAME    = COSMOS 2058
OBJECT_ID      = 1990-010A
CENTER_NAME    = EARTH
REF_FRAME      = TEME
TIME_SYSTEM    = UTC
MEAN_ELEMENT_THEORY = SGP/SGP4

EPOCH          = 2025-12-28T07:48:05.750784
MEAN_MOTION    = 15.10628938
ECCENTRICITY   = .00097507
INCLINATION    = 82.4706
RA_OF_ASC_NODE = 117.7014
ARG_OF_PERICENTER = 215.2223
MEAN_ANOMALY   = 144.8363

EPHEMERIS_TYPE = 0
CLASSIFICATION_TYPE = U
NORAD_CAT_ID   = 20465
ELEMENT_SET_NO = 999
REV_AT_EPOCH   = 93146
BSTAR          = .37953924E-3
MEAN_MOTION_DOT = .6307E-4
MEAN_MOTION_DDOT = 0

CCSDS_OMM_VERS = 2.0
CREATION_DATE  = 
ORIGINATOR     = 

OBJECT_NAME    = SL-14 R/B
OBJECT_ID      = 1990-010B
CENTER_NAME    = EARTH
REF_FRAME      = TEME
TIME_SYSTEM    = UTC
MEAN_ELEMENT_THEORY = SGP/SGP4

EPOCH          = 2025-12-28T04:36:03.217824
MEAN_MOTION    = 14.83486642
ECCENTRICITY   = .00199738
INCLINATION    = 82.5025
RA_OF_ASC_NODE = 334.5340
ARG_OF_PERICENTER = 170.9075
MEAN_ANOMALY   = 189.2506

EPHEMERIS_TYPE = 0
CLASSIFICATION_TYPE = U
NORAD_CAT_ID   = 20466
ELEMENT_SET_NO = 999
REV_AT_EPOCH   = 91788
BSTAR          = .76403347E-4
MEAN_MOTION_DOT = .654E-5
MEAN_MOTION_DDOT = 0

CCSDS_OMM_VERS = 2.0
CREATION_DATE  = 
ORIGINATOR     = 

OBJECT_NAME    = SL-14 R/B
OBJECT_ID      = 1990-018B
CENTER_NAME    = EARTH
REF_FRAME      = TEME
TIME_SYSTEM    = UTC
MEAN_ELEMENT_THEORY = SGP/SGP4

EPOCH          = 2025-12-28T06:37:03.547200
MEAN_MOTION    = 14.82063661
ECCENTRICITY   = .00156655
INCLINATION    = 82.5220
RA_OF_ASC_NODE = 289.8447
ARG_OF_PERICENTER = 332.1414
MEAN_ANOMALY   = 27.8960

EPHEMERIS_TYPE = 0
CLASSIFICATION_TYPE = U
NORAD_CAT_ID   = 20511
ELEMENT_SET_NO = 999
REV_AT_EPOCH   = 91200
BSTAR          = .81686464E-4
MEAN_MOTION_DOT = .673E-5
MEAN_MOTION_DDOT = 0

CCSDS_OMM_VERS = 2.0
CREATION_DATE  = 
ORIGINATOR     = 

OBJECT_NAME    = HST
OBJECT_ID      = 1990-037B
CENTER_NAME    = EARTH
REF_FRAME      = TEME
TIME_SYSTEM    = UTC
MEAN_ELEMENT_THEORY = SGP/SGP4

EPOCH          = 2025-12-27T19:30:20.881152
MEAN_MOTION    = 15.28239180
ECCENTRICITY   = .00025671
INCLINATION    = 28.4655
RA_OF_ASC_NODE = 169.8779
ARG_OF_PERICENTER = 48.3389
MEAN_ANOMALY   = 311.7425

EPHEMERIS_TYPE = 0
CLASSIFICATION_TYPE = U
NORAD_CAT_ID   = 20580
ELEMENT_SET_NO = 999
REV_AT_EPOCH   = 76230
BSTAR          = .26316542E-3
MEAN_MOTION_DOT = .7679E-4
MEAN_MOTION_DDOT = 0

CCSDS_OMM_VERS = 2.0
CREATION_DATE  = 
ORIGINATOR     = 

OBJECT_NAME    = SL-16 R/B
OBJECT_ID      = 1990-046B
CENTER_NAME    = EARTH
REF_FRAME      = TEME
TIME_SYSTEM    = UTC
MEAN_ELEMENT_THEORY = SGP/SGP4

EPOCH          = 2025-12-28T05:27:41.558976
MEAN_MOTION    = 14.14997520
ECCENTRICITY   = .00124093
INCLINATION    = 70.9992
RA_OF_ASC_NODE = 87.9966
ARG_OF_PERICENTER = 46.8350
MEAN_ANOMALY   = 313.3807

EPHEMERIS_TYPE = 0
CLASSIFICATION_TYPE = U
NORAD_CAT_ID   = 20625
ELEMENT_SET_NO = 999
REV_AT_EPOCH   = 83828
BSTAR          = .29077195E-4
MEAN_MOTION_DOT = .9E-7
MEAN_MOTION_DDOT = 0

CCSDS_OMM_VERS = 2.0
CREATION_DATE  = 
ORIGINATOR     = 

OBJECT_NAME    = COSMOS 2084
OBJECT_ID      = 1990-055A
CENTER_NAME    = EARTH
REF_FRAME      = TEME
TIME_SYSTEM    = UTC
MEAN_ELEMENT_THEORY = SGP/SGP4

EPOCH          = 2025-12-28T01:10:03.201024
MEAN_MOTION    = 15.05109929
ECCENTRICITY   = .00292711
INCLINATION    = 62.7886
RA_OF_ASC_NODE = 219.8271
ARG_OF_PERICENTER = 176.7470
MEAN_ANOMALY   = 183.3826

EPHEMERIS_TYPE = 0
CLASSIFICATION_TYPE = U
NORAD_CAT_ID   = 20663
ELEMENT_SET_NO = 999
REV_AT_EPOCH   = 92553
BSTAR          = .24040247E-3
MEAN_MOTION_DOT = .3265E-4
MEAN_MOTION_DDOT = 0

CCSDS_OMM_VERS = 2.0
CREATION_DATE  = 
ORIGINATOR     = 

OBJECT_NAME    = SL-6 R/B(2)
OBJECT_ID      = 1990-055D
CENTER_NAME    = EARTH
REF_FRAME      = TEME
TIME_SYSTEM    = UTC
MEAN_ELEMENT_THEORY = SGP/SGP4

EPOCH          = 2025-12-27T17:39:37.960128
MEAN_MOTION    = 15.03147882
ECCENTRICITY   = .00145178
INCLINATION    = 62.7829
RA_OF_ASC_NODE = 138.4586
ARG_OF_PERICENTER = 318.9634
MEAN_ANOMALY   = 41.0371

EPHEMERIS_TYPE = 0
CLASSIFICATION_TYPE = U
NORAD_CAT_ID   = 20666
ELEMENT_SET_NO = 999
REV_AT_EPOCH   = 92737
BSTAR          = .24449101E-3
MEAN_MOTION_DOT = .3129E-4
MEAN_MOTION_DDOT = 0

CCSDS_OMM_VERS = 2.0
CREATION_DATE  = 
ORIGINATOR     = 

OBJECT_NAME    = SL-8 R/B
OBJECT_ID      = 1990-078B
CENTER_NAME    = EARTH
REF_FRAME      = TEME
TIME_SYSTEM    = UTC
MEAN_ELEMENT_THEORY = SGP/SGP4

EPOCH          = 2025-12-28T06:48:12.093984
MEAN_MOTION    = 14.86484273
ECCENTRICITY   = .0369798
INCLINATION    = 82.9055
RA_OF_ASC_NODE = 315.3917
ARG_OF_PERICENTER = 253.5488
MEAN_ANOMALY   = 102.4796

EPHEMERIS_TYPE = 0
CLASSIFICATION_TYPE = U
NORAD_CAT_ID   = 20775
ELEMENT_SET_NO = 999
REV_AT_EPOCH   = 79868
BSTAR          = .54913418E-3
MEAN_MOTION_DOT = .17819E-3
MEAN_MOTION_DDOT = 0

CCSDS_OMM_VERS = 2.0
CREATION_DATE  = 
ORIGINATOR     = 

OBJECT_NAME    = SL-8 R/B
OBJECT_ID      = 1991-006B
CENTER_NAME    = EARTH
REF_FRAME      = TEME
TIME_SYSTEM    = UTC
MEAN_ELEMENT_THEORY = SGP/SGP4

EPOCH          = 2025-12-28T03:51:12.386592
MEAN_MOTION    = 13.77492817
ECCENTRICITY   = .00213853
INCLINATION    = 82.9411
RA_OF_ASC_NODE = 223.2424
ARG_OF_PERICENTER = 234.0224
MEAN_ANOMALY   = 240.3995

EPHEMERIS_TYPE = 0
CLASSIFICATION_TYPE = U
NORAD_CAT_ID   = 21088
ELEMENT_SET_NO = 999
REV_AT_EPOCH   = 75422
BSTAR          = .68392258E-4
MEAN_MOTION_DOT = .83E-6
MEAN_MOTION_DDOT = 0

CCSDS_OMM_VERS = 2.0
CREATION_DATE  = 
ORIGINATOR     = 

OBJECT_NAME    = OKEAN-3
OBJECT_ID      = 1991-039A
CENTER_NAME    = EARTH
REF_FRAME      = TEME
TIME_SYSTEM    = UTC
MEAN_ELEMENT_THEORY = SGP/SGP4

EPOCH          = 2025-12-28T04:22:24.795552
MEAN_MOTION    = 15.04214193
ECCENTRICITY   = .00136666
INCLINATION    = 82.5162
RA_OF_ASC_NODE = 46.0986
ARG_OF_PERICENTER = 207.1420
MEAN_ANOMALY   = 152.9093

EPHEMERIS_TYPE = 0
CLASSIFICATION_TYPE = U
NORAD_CAT_ID   = 21397
ELEMENT_SET_NO = 999
REV_AT_EPOCH   = 85428
BSTAR          = .2479628E-3
MEAN_MOTION_DOT = .3478E-4
MEAN_MOTION_DDOT = 0

CCSDS_OMM_VERS = 2.0
CREATION_DATE  = 
ORIGINATOR     = 

OBJECT_NAME    = COSMOS 2151
OBJECT_ID      = 1991-042A
CENTER_NAME    = EARTH
REF_FRAME      = TEME
TIME_SYSTEM    = UTC
MEAN_ELEMENT_THEORY = SGP/SGP4

EPOCH          = 2025-12-28T05:39:44.666496
MEAN_MOTION    = 14.99750464
ECCENTRICITY   = .0011445
INCLINATION    = 82.4967
RA_OF_ASC_NODE = 152.5693
ARG_OF_PERICENTER = 304.6178
MEAN_ANOMALY   = 55.3966

EPHEMERIS_TYPE = 0
CLASSIFICATION_TYPE = U
NORAD_CAT_ID   = 21422
ELEMENT_SET_NO = 999
REV_AT_EPOCH   = 85248
BSTAR          = .27482639E-3
MEAN_MOTION_DOT = .3424E-4
MEAN_MOTION_DDOT = 0

